CONNECTA IOT-14         
1 67401U 26004AQ  26033.49431383  .00010298  00000+0  50189-3 0  9994
2 67401  97.4471  34.5342 0011584  90.6940 269.5622 15.18464909  3327
CONNECTA IOT-15         
1 67402U 26004AR  26034.17680170  .00006811  00000+0  34956-3 0  9991
2 67402  97.4545  35.1697 0004876  76.4178 283.7598 15.16832904  3413
SHIJIAN-29B (SJ-29B)    
1 67403U 25315C   26034.00289479 -.00000077  00000+0  00000+0 0  9993
2 67403   3.0582  98.6234 0001865 309.8270 158.8680  1.00271581   349
STARLINK-36484          
1 67404U 26005A   26034.16668981 -.02046624  00000+0 -45338-1 0  9993
2 67404  42.9997  76.2117 0000572 283.5147 272.0404 15.46450063  4581
STARLINK-36452          
1 67405U 26005B   26034.16668981  .00054660  00000+0  93274-3 0  9993
2 67405  42.9997  76.1906 0001155 261.8150 302.5408 15.50527626  4586
STARLINK-36409          
1 67406U 26005C   26034.16668981  .00067657  00000+0  11516-2 0  9992
2 67406  42.9998  76.1856 0001501 286.1130 280.1640 15.50518198  4634
STARLINK-36510          
1 67407U 26005D   26034.16668981  .00063930  00000+0  10888-2 0  9994
2 67407  42.9998  76.1809 0001534 286.0524 282.1366 15.50523462  4632
STARLINK-36509          
1 67408U 26005E   26034.16668981  .00054681  00000+0  93310-3 0  9990
2 67408  42.9997  76.1756 0001118 262.5991 307.5079 15.50527831  4635
STARLINK-36507          
1 67409U 26005F   26034.16668981  .00066917  00000+0  11390-2 0  9993
2 67409  42.9998  76.1712 0001479 285.2154 286.8081 15.50522253  4637
STARLINK-36508          
1 67410U 26005G   26034.16668981 -.02082016  00000+0 -41170-1 0  9995
2 67410  42.9999  76.1670 0001038 251.0881 322.5194 15.49723995  4639
STARLINK-36503          
1 67411U 26005H   26034.16668981  .00055085  00000+0  93991-3 0  9998
2 67411  42.9997  76.1610 0001157 265.3970 310.4634 15.50527147  4370
STARLINK-36446          
1 67412U 26005J   26034.16668981  .00056503  00000+0  96389-3 0  9999
2 67412  42.9998  76.1564 0001393 261.0727 316.7045 15.50523744  4638
