CCSDS_OMM_VERS = 2.0
CREATION_DATE  = 
ORIGINATOR     = 

OBJECT_NAME    = CONNECTA IOT-14
OBJECT_ID      = 2026-004AQ
CENTER_NAME    = EARTH
REF_FRAME      = TEME
TIME_SYSTEM    = UTC
MEAN_ELEMENT_THEORY = SGP/SGP4

EPOCH          = 2026-02-02T11:51:48.714912
MEAN_MOTION    = 15.18464909
ECCENTRICITY   = .0011584
INCLINATION    = 97.4471
RA_OF_ASC_NODE = 34.5342
ARG_OF_PERICENTER = 90.6940
MEAN_ANOMALY   = 269.5622

EPHEMERIS_TYPE = 0
CLASSIFICATION_TYPE = U
NORAD_CAT_ID   = 67401
ELEMENT_SET_NO = 999
REV_AT_EPOCH   = 332
BSTAR          = .50189279E-3
MEAN_MOTION_DOT = .10298E-3
MEAN_MOTION_DDOT = 0

CCSDS_OMM_VERS = 2.0
CREATION_DATE  = 
ORIGINATOR     = 

OBJECT_NAME    = CONNECTA IOT-15
OBJECT_ID      = 2026-004AR
CENTER_NAME    = EARTH
REF_FRAME      = TEME
TIME_SYSTEM    = UTC
MEAN_ELEMENT_THEORY = SGP/SGP4

EPOCH          = 2026-02-03T04:14:35.666880
MEAN_MOTION    = 15.16832904
ECCENTRICITY   = .0004876
INCLINATION    = 97.4545
RA_OF_ASC_NODE = 35.1697
ARG_OF_PERICENTER = 76.4178
MEAN_ANOMALY   = 283.7598

EPHEMERIS_TYPE = 0
CLASSIFICATION_TYPE = U
NORAD_CAT_ID   = 67402
ELEMENT_SET_NO = 999
REV_AT_EPOCH   = 341
BSTAR          = .34956E-3
MEAN_MOTION_DOT = .6811E-4
MEAN_MOTION_DDOT = 0

CCSDS_OMM_VERS = 2.0
CREATION_DATE  = 
ORIGINATOR     = 

OBJECT_NAME    = SHIJIAN-29B (SJ-29B)
OBJECT_ID      = 2025-315C
CENTER_NAME    = EARTH
REF_FRAME      = TEME
TIME_SYSTEM    = UTC
MEAN_ELEMENT_THEORY = SGP/SGP4

EPOCH          = 2026-02-03T00:04:10.109856
MEAN_MOTION    = 1.00271581
ECCENTRICITY   = .0001865
INCLINATION    = 3.0582
RA_OF_ASC_NODE = 98.6234
ARG_OF_PERICENTER = 309.8270
MEAN_ANOMALY   = 158.8680

EPHEMERIS_TYPE = 0
CLASSIFICATION_TYPE = U
NORAD_CAT_ID   = 67403
ELEMENT_SET_NO = 999
REV_AT_EPOCH   = 34
BSTAR          = 0
MEAN_MOTION_DOT = -.77E-6
MEAN_MOTION_DDOT = 0

CCSDS_OMM_VERS = 2.0
CREATION_DATE  = 
ORIGINATOR     = 

OBJECT_NAME    = STARLINK-36484
OBJECT_ID      = 2026-005A
CENTER_NAME    = EARTH
REF_FRAME      = TEME
TIME_SYSTEM    = UTC
MEAN_ELEMENT_THEORY = SGP/SGP4

EPOCH          = 2026-02-03T04:00:01.999584
MEAN_MOTION    = 15.46450063
ECCENTRICITY   = .0000572
INCLINATION    = 42.9997
RA_OF_ASC_NODE = 76.2117
ARG_OF_PERICENTER = 283.5147
MEAN_ANOMALY   = 272.0404

EPHEMERIS_TYPE = 0
CLASSIFICATION_TYPE = U
NORAD_CAT_ID   = 67404
ELEMENT_SET_NO = 999
REV_AT_EPOCH   = 458
BSTAR          = -.45338E-1
MEAN_MOTION_DOT = -.2046624E-1
MEAN_MOTION_DDOT = 0

CCSDS_OMM_VERS = 2.0
CREATION_DATE  = 
ORIGINATOR     = 

OBJECT_NAME    = STARLINK-36452
OBJECT_ID      = 2026-005B
CENTER_NAME    = EARTH
REF_FRAME      = TEME
TIME_SYSTEM    = UTC
MEAN_ELEMENT_THEORY = SGP/SGP4

EPOCH          = 2026-02-03T04:00:01.999584
MEAN_MOTION    = 15.50527626
ECCENTRICITY   = .0001155
INCLINATION    = 42.9997
RA_OF_ASC_NODE = 76.1906
ARG_OF_PERICENTER = 261.8150
MEAN_ANOMALY   = 302.5408

EPHEMERIS_TYPE = 0
CLASSIFICATION_TYPE = U
NORAD_CAT_ID   = 67405
ELEMENT_SET_NO = 999
REV_AT_EPOCH   = 458
BSTAR          = .93274E-3
MEAN_MOTION_DOT = .5466E-3
MEAN_MOTION_DDOT = 0

CCSDS_OMM_VERS = 2.0
CREATION_DATE  = 
ORIGINATOR     = 

OBJECT_NAME    = STARLINK-36409
OBJECT_ID      = 2026-005C
CENTER_NAME    = EARTH
REF_FRAME      = TEME
TIME_SYSTEM    = UTC
MEAN_ELEMENT_THEORY = SGP/SGP4

EPOCH          = 2026-02-03T04:00:01.999584
MEAN_MOTION    = 15.50518198
ECCENTRICITY   = .0001501
INCLINATION    = 42.9998
RA_OF_ASC_NODE = 76.1856
ARG_OF_PERICENTER = 286.1130
MEAN_ANOMALY   = 280.1640

EPHEMERIS_TYPE = 0
CLASSIFICATION_TYPE = U
NORAD_CAT_ID   = 67406
ELEMENT_SET_NO = 999
REV_AT_EPOCH   = 463
BSTAR          = .11516E-2
MEAN_MOTION_DOT = .67657E-3
MEAN_MOTION_DDOT = 0

CCSDS_OMM_VERS = 2.0
CREATION_DATE  = 
ORIGINATOR     = 

OBJECT_NAME    = STARLINK-36510
OBJECT_ID      = 2026-005D
CENTER_NAME    = EARTH
REF_FRAME      = TEME
TIME_SYSTEM    = UTC
MEAN_ELEMENT_THEORY = SGP/SGP4

EPOCH          = 2026-02-03T04:00:01.999584
MEAN_MOTION    = 15.50523462
ECCENTRICITY   = .0001534
INCLINATION    = 42.9998
RA_OF_ASC_NODE = 76.1809
ARG_OF_PERICENTER = 286.0524
MEAN_ANOMALY   = 282.1366

EPHEMERIS_TYPE = 0
CLASSIFICATION_TYPE = U
NORAD_CAT_ID   = 67407
ELEMENT_SET_NO = 999
REV_AT_EPOCH   = 463
BSTAR          = .10888E-2
MEAN_MOTION_DOT = .6393E-3
MEAN_MOTION_DDOT = 0

CCSDS_OMM_VERS = 2.0
CREATION_DATE  = 
ORIGINATOR     = 

OBJECT_NAME    = STARLINK-36509
OBJECT_ID      = 2026-005E
CENTER_NAME    = EARTH
REF_FRAME      = TEME
TIME_SYSTEM    = UTC
MEAN_ELEMENT_THEORY = SGP/SGP4

EPOCH          = 2026-02-03T04:00:01.999584
MEAN_MOTION    = 15.50527831
ECCENTRICITY   = .0001118
INCLINATION    = 42.9997
RA_OF_ASC_NODE = 76.1756
ARG_OF_PERICENTER = 262.5991
MEAN_ANOMALY   = 307.5079

EPHEMERIS_TYPE = 0
CLASSIFICATION_TYPE = U
NORAD_CAT_ID   = 67408
ELEMENT_SET_NO = 999
REV_AT_EPOCH   = 463
BSTAR          = .9331E-3
MEAN_MOTION_DOT = .54681E-3
MEAN_MOTION_DDOT = 0

CCSDS_OMM_VERS = 2.0
CREATION_DATE  = 
ORIGINATOR     = 

OBJECT_NAME    = STARLINK-36507
OBJECT_ID      = 2026-005F
CENTER_NAME    = EARTH
REF_FRAME      = TEME
TIME_SYSTEM    = UTC
MEAN_ELEMENT_THEORY = SGP/SGP4

EPOCH          = 2026-02-03T04:00:01.999584
MEAN_MOTION    = 15.50522253
ECCENTRICITY   = .0001479
INCLINATION    = 42.9998
RA_OF_ASC_NODE = 76.1712
ARG_OF_PERICENTER = 285.2154
MEAN_ANOMALY   = 286.8081

EPHEMERIS_TYPE = 0
CLASSIFICATION_TYPE = U
NORAD_CAT_ID   = 67409
ELEMENT_SET_NO = 999
REV_AT_EPOCH   = 463
BSTAR          = .1139E-2
MEAN_MOTION_DOT = .66917E-3
MEAN_MOTION_DDOT = 0

CCSDS_OMM_VERS = 2.0
CREATION_DATE  = 
ORIGINATOR     = 

OBJECT_NAME    = STARLINK-36508
OBJECT_ID      = 2026-005G
CENTER_NAME    = EARTH
REF_FRAME      = TEME
TIME_SYSTEM    = UTC
MEAN_ELEMENT_THEORY = SGP/SGP4

EPOCH          = 2026-02-03T04:00:01.999584
MEAN_MOTION    = 15.49723995
ECCENTRICITY   = .0001038
INCLINATION    = 42.9999
RA_OF_ASC_NODE = 76.1670
ARG_OF_PERICENTER = 251.0881
MEAN_ANOMALY   = 322.5194

EPHEMERIS_TYPE = 0
CLASSIFICATION_TYPE = U
NORAD_CAT_ID   = 67410
ELEMENT_SET_NO = 999
REV_AT_EPOCH   = 463
BSTAR          = -.4117E-1
MEAN_MOTION_DOT = -.2082016E-1
MEAN_MOTION_DDOT = 0

CCSDS_OMM_VERS = 2.0
CREATION_DATE  = 
ORIGINATOR     = 

OBJECT_NAME    = STARLINK-36503
OBJECT_ID      = 2026-005H
CENTER_NAME    = EARTH
REF_FRAME      = TEME
TIME_SYSTEM    = UTC
MEAN_ELEMENT_THEORY = SGP/SGP4

EPOCH          = 2026-02-03T04:00:01.999584
MEAN_MOTION    = 15.50527147
ECCENTRICITY   = .0001157
INCLINATION    = 42.9997
RA_OF_ASC_NODE = 76.1610
ARG_OF_PERICENTER = 265.3970
MEAN_ANOMALY   = 310.4634

EPHEMERIS_TYPE = 0
CLASSIFICATION_TYPE = U
NORAD_CAT_ID   = 67411
ELEMENT_SET_NO = 999
REV_AT_EPOCH   = 437
BSTAR          = .93991E-3
MEAN_MOTION_DOT = .55085E-3
MEAN_MOTION_DDOT = 0

CCSDS_OMM_VERS = 2.0
CREATION_DATE  = 
ORIGINATOR     = 

OBJECT_NAME    = STARLINK-36446
OBJECT_ID      = 2026-005J
CENTER_NAME    = EARTH
REF_FRAME      = TEME
TIME_SYSTEM    = UTC
MEAN_ELEMENT_THEORY = SGP/SGP4

EPOCH          = 2026-02-03T04:00:01.999584
MEAN_MOTION    = 15.50523744
ECCENTRICITY   = .0001393
INCLINATION    = 42.9998
RA_OF_ASC_NODE = 76.1564
ARG_OF_PERICENTER = 261.0727
MEAN_ANOMALY   = 316.7045

EPHEMERIS_TYPE = 0
CLASSIFICATION_TYPE = U
NORAD_CAT_ID   = 67412
ELEMENT_SET_NO = 999
REV_AT_EPOCH   = 463
BSTAR          = .96389E-3
MEAN_MOTION_DOT = .56503E-3
MEAN_MOTION_DDOT = 0

